{"type": "FeatureCollection", "features": [ {"type": "Feature", "properties": {"norad_id": 61186, "name": "BEIDOU-3 M25 (C47)", "group": "beidou", "lat": -14.42696755921746, "lon": -62.129195217152095, "alt_km": 21518.963892177842, "timestamp": "2025-12-21T16:47:55.003930+00:00", "meta": {"OBJECT_NAME": "BEIDOU-3 M25 (C47)", "OBJECT_ID": "2024-168B", "EPOCH": "2025-12-21T10:54:12.559392", "MEAN_MOTION": 1.86230226, "ECCENTRICITY": 0.0005453, "INCLINATION": 54.6344, "RA_OF_ASC_NODE": 308.4188, "ARG_OF_PERICENTER": 299.6756, "MEAN_ANOMALY": 237.8086, "EPHEMERIS_TYPE": 0, "CLASSIFICATION_TYPE": "U", "NORAD_CAT_ID": 61186, "ELEMENT_SET_NO": 999, "REV_AT_EPOCH": 847, "BSTAR": 0, "MEAN_MOTION_DOT": -6.3e-07, "MEAN_MOTION_DDOT": 0}, "tle": {"line1": "1 61186U 24168B   25355.45431203 -.00000063  00000+0  00000+0 0  9993", "line2": "2 61186  54.6344 308.4188 0005453 299.6756 237.8086  1.86230226  8476"}}, "geometry": {"type": "Point", "coordinates": [-62.129195217152095, -14.42696755921746]}}, {"type": "Feature", "properties": {"norad_id": 61187, "name": "BEIDOU-3 M27 (C49)", "group": "beidou", "lat": 46.51235714003309, "lon": 79.94486613786631, "alt_km": 21527.732848063402, "timestamp": "2025-12-21T16:47:55.003941+00:00", "meta": {"OBJECT_NAME": "BEIDOU-3 M27 (C49)", "OBJECT_ID": "2024-168C", "EPOCH": "2025-12-21T06:06:47.585952", "MEAN_MOTION": 1.86230383, "ECCENTRICITY": 0.0002534, "INCLINATION": 54.63, "RA_OF_ASC_NODE": 308.4093, "ARG_OF_PERICENTER": 340.0926, "MEAN_ANOMALY": 198.5211, "EPHEMERIS_TYPE": 0, "CLASSIFICATION_TYPE": "U", "NORAD_CAT_ID": 61187, "ELEMENT_SET_NO": 999, "REV_AT_EPOCH": 594, "BSTAR": 0, "MEAN_MOTION_DOT": -6.4e-07, "MEAN_MOTION_DDOT": 0}, "tle": {"line1": "1 61187U 24168C   25355.25471743 -.00000064  00000+0  00000+0 0  9996", "line2": "2 61187  54.6300 308.4093 0002534 340.0926 198.5211  1.86230383  5947"}}, "geometry": {"type": "Point", "coordinates": [79.94486613786631, 46.51235714003309]}}]}